[{"OBJECT_NAME":"STARLINK-5754","OBJECT_ID":"2023-020L","EPOCH":"2026-03-09T22:00:01.999584","MEAN_MOTION":15.10899351,"ECCENTRICITY":0.00010973,"INCLINATION":43.0004,"RA_OF_ASC_NODE":3.1467,"ARG_OF_PERICENTER":303.9575,"MEAN_ANOMALY":160.1535,"EPHEMERIS_TYPE":0,"CLASSIFICATION_TYPE":"U","NORAD_CAT_ID":55579,"ELEMENT_SET_NO":999,"REV_AT_EPOCH":573,"BSTAR":0.072815742,"MEAN_MOTION_DOT":0.01342281,"MEAN_MOTION_DDOT":0},{"OBJECT_NAME":"TIANYI E","OBJECT_ID":"2025-103E","EPOCH":"2026-03-09T23:53:00.366432","MEAN_MOTION":15.21814724,"ECCENTRICITY":0.00039842,"INCLINATION":97.3824,"RA_OF_ASC_NODE":143.2002,"ARG_OF_PERICENTER":141.8927,"MEAN_ANOMALY":218.2592,"EPHEMERIS_TYPE":0,"CLASSIFICATION_TYPE":"U","NORAD_CAT_ID":64052,"ELEMENT_SET_NO":999,"REV_AT_EPOCH":4501,"BSTAR":0.00058098281,"MEAN_MOTION_DOT":0.0001314,"MEAN_MOTION_DDOT":0}]
